0 DELTA 1 DEB
1 12181U 78026W   13281.51042666  .00000141  00000-0  74210-4 0  2538
2 12181 098.4426 289.5210 0102414 094.8824 055.7535 14.24467910696719
0 DELTA 1 DEB
1 12181U 78026W   13283.61638346  .00000173  00000-0  87426-4 0  2546
2 12181 098.4423 291.5458 0102383 088.7946 055.2105 14.24469241697016
0 DELTA 1 DEB
1 12181U 78026W   13285.85943641  .00000165  00000-0  84236-4 0  2559
2 12181 098.4419 293.7025 0102328 082.3118 037.7102 14.24470186697332
0 DELTA 1 DEB
1 12181U 78026W   13287.95530917  .00000265  00000-0  12495-3 0  2569
2 12181 098.4417 295.7174 0102270 076.2386 345.4844 14.24471442697633
0 DELTA 1 DEB
1 12181U 78026W   13289.99065367  .00000194  00000-0  95958-4 0  2575
2 12181 098.4418 297.6740 0102173 070.3351 342.8808 14.24472797697920
0 DELTA 1 DEB
1 12181U 78026W   13292.09553473  .00000215  00000-0  10477-3 0  2587
2 12181 098.4420 299.6973 0102113 064.2408 336.8658 14.24473541698220
0 DELTA 1 DEB
1 12181U 78026W   13294.50515527  .00000210  00000-0  10266-3 0  2595
2 12181 098.4422 302.0136 0102010 057.2580 093.5900 14.24474985698568
